LEO-DEMO-1
1 90101U 25004A   25210.50000000  .00000000  00000-0  00000-0 0  9991
2 90101  97.5000  10.0000 0010000  90.0000  20.0000 15.50000000    11
LEO-DEMO-2
1 90102U 25004B   25210.50000000  .00000000  00000-0  00000-0 0  9992
2 90102  97.5000  46.0000 0010000  90.0000  20.0000 15.50000000    12
LEO-DEMO-3
1 90103U 25004C   25210.50000000  .00000000  00000-0  00000-0 0  9993
2 90103  97.5000  82.0000 0010000  90.0000  20.0000 15.50000000    13
LEO-DEMO-4
1 90104U 25004D   25210.50000000  .00000000  00000-0  00000-0 0  9994
2 90104  97.5000 118.0000 0010000  90.0000  20.0000 15.50000000    14
LEO-DEMO-5
1 90105U 25004E   25210.50000000  .00000000  00000-0  00000-0 0  9995
2 90105  97.5000 154.0000 0010000  90.0000  20.0000 15.50000000    15
LEO-DEMO-6
1 90106U 25004F   25210.50000000  .00000000  00000-0  00000-0 0  9996
2 90106  97.5000 190.0000 0010000  90.0000  20.0000 15.50000000    16
LEO-DEMO-7
1 90107U 25004G   25210.50000000  .00000000  00000-0  00000-0 0  9997
2 90107  97.5000 226.0000 0010000  90.0000  20.0000 15.50000000    17
LEO-DEMO-8
1 90108U 25004H   25210.50000000  .00000000  00000-0  00000-0 0  9998
2 90108  97.5000 262.0000 0010000  90.0000  20.0000 15.50000000    18
LEO-DEMO-9
1 90109U 25004I   25210.50000000  .00000000  00000-0  00000-0 0  9999
2 90109  97.5000 298.0000 0010000  90.0000  20.0000 15.50000000    19
LEO-DEMO-10
1 90110U 25004J   25210.50000000  .00000000  00000-0  00000-0 0  9990
2 90110  97.5000 334.0000 0010000  90.0000  20.0000 15.50000000    10
